#aV2011  9 28  0  0   .00000000      96 DD+AD WGS84 FIT  NGA
## 1655 259200.00000000   900.00000000 55832  .0000000000000
+   32     1  2  3  4  5  6  7  8  9 10 11 12 13 14 15 16 17
+         18 19 20 21 22 23 24 25 26 27 28 29 30 31 32  0  0
+          0  0  0  0  0  0  0  0  0  0  0  0  0  0  0  0  0
+          0  0  0  0  0  0  0  0  0  0  0  0  0  0  0  0  0
+          0  0  0  0  0  0  0  0  0  0  0  0  0  0  0  0  0
++         0  0  0  0  0  0  0  0  0  0  0  0  0  0  0  0  0
++         0  0  0  0  0  0  0  0  0  0  0  0  0  0  0  0  0
++         0  0  0  0  0  0  0  0  0  0  0  0  0  0  0  0  0
++         0  0  0  0  0  0  0  0  0  0  0  0  0  0  0  0  0
++         0  0  0  0  0  0  0  0  0  0  0  0  0  0  0  0  0
%c cc cc ccc ccc cccc cccc cccc cccc ccccc ccccc ccccc ccccc
%c cc cc ccc ccc cccc cccc cccc cccc ccccc ccccc ccccc ccccc
%f  0.0000000  0.000000000  0.00000000000  0.000000000000000
%f  0.0000000  0.000000000  0.00000000000  0.000000000000000
%i    0    0    0    0      0      0      0      0         0
%i    0    0    0    0      0      0      0      0         0
/*      NGA, ST. LOUIS,MO.                                  
/*   EPHEMERIS COMPUTED FROM  3 DAYS OF DATA                
/* CCCCCCCCCCCCCCCCCCCCCCCCCCCCCCCCCCCCCCCCCCCCCCCCCCCCCCCCC
/* CCCCCCCCCCCCCCCCCCCCCCCCCCCCCCCCCCCCCCCCCCCCCCCCCCCCCCCCC
*  2011  9 28 10 45   .00000000                                                 
P  1 -20217.186333 -13500.509535 -10708.449427     -4.432222                    
V  1  13737.835673   1336.701202 -27648.981619      -.015387                    
P  2  -1227.228395  15867.258271  21371.527024    358.257814                    
V  2 -26092.000248  -6988.092172   3208.943483       .018151                    
P  3   7096.253810 -22799.157079 -11755.388910    774.178062                    
V  3  11622.152454  -9172.244866  26090.741160       .050196                    
P  4 -17409.363731   8659.316359  18014.195198    244.498513                    
V  4 -21850.265076  -8223.079986 -16613.870873       .112349                    
P  5   1097.649487  25509.595132   7081.984547   -224.390249                    
V  5  -5075.272285  -8067.440557  29909.765863      -.052068                    
P  6  12429.515033 -21865.384097  -7993.835163    -60.596562                    
V  6   9740.057410  -5182.327713  29074.202367       .082555                    
P  7 -25895.368639  -5643.949686  -3156.247334     28.981145                    
V  7  -3196.271243  -3196.577596  31588.122146       .019145                    
P  8 -23709.929614   -625.975631 -12490.338465      9.257321                    
V  8 -14226.741225  -6615.266429  26687.932340       .000949                    
P  9  16965.088776  14758.800883 -14663.763021    108.336747                    
V  9 -17384.708774  -3299.956411 -24379.502840       .023441                    
P 10 -11359.023111  13505.263506  19511.059708    -14.597342                    
V 10  -7043.789764 -24475.821522  13075.445204      -.011596                    
P 11 -15722.217822 -13982.686902 -16741.563381   -189.869684                    
V 11  20824.304966  -2214.319037 -17740.002188      -.034025                    
P 12  11933.958551  21496.660946  10272.369970     25.160053                    
V 12    957.657002  13060.829244 -28298.402968       .023700                    
P 13 -18407.935544  -1259.371927  19002.823670    249.328610                    
V 13  18330.178474 -16012.509972  16496.163313      -.018880                    
P 14  21552.357575 -14837.586326  -3890.336029    174.337775                    
V 14  -2470.171684   5081.247403 -31791.660282       .017861                    
P 15   4722.770065  16099.618057 -20541.938240   -104.553710                    
V 15 -19324.263734  17711.780256   9608.998499       .014311                    
P 16  -1382.965866 -25751.224659   5673.561904   -200.313332                    
V 16   3861.860467   6591.685656  31219.265823      -.021781                    
P 17 -21202.826292  15215.670208  -4048.320283    173.164844                    
V 17   2005.868804  -5783.404326 -31367.980275      -.016809                    
P 18  16373.623948   4074.310710 -20246.585162    159.505192                    
V 18   5011.018211  26044.171976   8775.638403       .018481                    
P 19   -795.903588 -17365.485053 -20003.377335   -188.572732                    
V 19  20650.552659 -14937.307652  12519.925653      -.040297                    
P 20 -13944.942141 -19905.133984  10645.657789     53.575871                    
V 20   -713.234410 -14117.834243 -26897.829627       .005388                    
P 21  25926.128304   3260.894056  -5849.120278   -174.400286                    
V 21   6644.821222   5285.201241  29549.239954      -.024817                    
P 22  12654.319839 -11723.651352 -19989.768265    144.266852                    
V 22   7014.266937  24998.178256 -10238.929562      -.004528                    
P 23 -12239.221180  -9260.138339  21722.354326    272.356461                    
V 23  20042.555818 -18824.726256   2914.878971      -.031070                    
P 24 -17827.672564 -15610.805822 -12268.276777    427.586550                    
V 24  15470.238190   2885.320921 -25754.223019       .032121                    
P 25  15804.145949  11484.735576  17977.165267     20.815229                    
V 25   4232.706390  22518.086534 -18052.188882       .017776                    
P 26  -7611.669457  19954.614958 -16125.047210   -172.206154                    
V 26 -16052.448672  11154.552550  22588.426307      -.129290                    
P 27  12415.036711  15104.823976 -17508.482198    309.707843                    
V 27 -22960.651585  -4366.938396 -18983.656873       .037564                    
P 28 -13184.786680   7481.063160 -21253.995791     71.121109                    
V 28  -6078.138347 -27579.229269  -6038.617307       .031075                    
P 29  18564.344762   1291.819528  19000.391470    243.698966                    
V 29 -17096.063875  16901.379154  15648.194357       .032884                    
P 30  15400.979681  -1370.086926  21237.416055     78.677870                    
V 30   8862.337969  26399.732685  -4646.587819      -.062655                    
P 31  13977.312861 -10066.020858  20479.582713    147.790120                    
V 31  24118.109029   8117.074393 -12386.275738       .053501                    
P 32  -7395.900322 -25337.997412   4881.557045   -336.405422                    
V 32   1660.761232  -6123.314231 -30512.421518      -.064679                    
EOF
